NORAD_CAT_ID,OBJECT_NAME,OBJECT_TYPE,EPOCH,MEAN_MOTION,ECCENTRICITY,INCLINATION,RA_OF_ASC_NODE,ARG_OF_PERICENTER,MEAN_ANOMALY,BSTAR,MEAN_MOTION_DOT,MEAN_MOTION_DDOT,TLE_LINE0,TLE_LINE1,TLE_LINE2,SEMIMAJOR_AXIS,PERIOD,APOGEE,PERIGEE,DECAYED
53561.0,STARLINK-4563,PAYLOAD,2024-07-05 14:09:12,15.08837064,0.0001168,53.2186,291.9521,88.9988,271.1138,8.9611e-05,1.139e-05,0.0,0 STARLINK-4563,1 53561U 22101AL  24187.58973090  .00001139  00000-0  89611-4 0  9992,2 53561  53.2186 291.9521 0001168  88.9988 271.1138 15.08837064103900,6917.889,95.438,540.562,538.946,0.0
53561.0,STARLINK-4563,PAYLOAD,2024-07-05 23:41:30,15.0885418,0.0001152,53.218,290.1622,82.2548,277.8575,0.00017851,2.555e-05,0.0,0 STARLINK-4563,1 53561U 22101AL  24187.98715627  .00002555  00000-0  17851-3 0  9995,2 53561  53.2180 290.1622 0001152  82.2548 277.8575 15.08854180103961,6917.837,95.437,540.499,538.905,0.0
53561.0,STARLINK-4563,PAYLOAD,2024-07-06 12:24:36,15.08827903,0.0001552,53.2188,287.7878,102.243,257.8736,-9.5539e-05,-1.808e-05,0.0,0 STARLINK-4563,1 53561U 22101AL  24188.51709434 -.00001808  00000-0 -95539-4 0  9996,2 53561  53.2188 287.7878 0001552 102.2430 257.8736 15.08827903104041,6917.917,95.438,540.856,538.709,0.0
53561.0,STARLINK-4563,PAYLOAD,2024-07-06 14:00:00,15.08828949,0.0001535,53.2187,287.4916,105.2086,254.9076,-6.7644e-05,-1.364e-05,0.0,0 STARLINK-4563,1 53561U 22101AL  24188.58333439 -.00001364  00000-0 -67644-4 0  9994,2 53561  53.2187 287.4916 0001535 105.2086 254.9076 15.08828949104058,6917.914,95.438,540.841,538.717,0.0
53561.0,STARLINK-4563,PAYLOAD,2024-07-07 10:40:00,15.08834923,0.0001492,53.2185,283.624,93.0074,267.1088,9.2823e-05,1.189e-05,0.0,0 STARLINK-4563,1 53561U 22101AL  24189.44445569  .00001189  00000-0  92823-4 0  9998,2 53561  53.2185 283.6240 0001492  93.0074 267.1088 15.08834923104189,6917.896,95.438,540.793,538.729,0.0
53561.0,STARLINK-4563,PAYLOAD,2024-07-07 13:50:47,15.08840169,0.0001286,53.2167,283.0284,86.3981,273.7158,0.00017321,2.47e-05,0.0,0 STARLINK-4563,1 53561U 22101AL  24189.57693346  .00002470  00000-0  17321-3 0  9993,2 53561  53.2167 283.0284 0001286  86.3981 273.7158 15.08840169104207,6917.88,95.438,540.635,538.855,0.0
53561.0,STARLINK-4563,PAYLOAD,2024-07-08 12:06:10,15.08849095,0.0001285,53.2155,278.8647,77.3895,282.7241,0.00038841,5.901e-05,0.0,0 STARLINK-4563,1 53561U 22101AL  24190.50429283  .00005901  00000-0  38841-3 0  9997,2 53561  53.2155 278.8647 0001285  77.3895 282.7241 15.08849095104347,6917.853,95.437,540.607,538.829,0.0
53561.0,STARLINK-4563,PAYLOAD,2024-07-08 13:41:33,15.0884981,0.0001279,53.2154,278.5672,75.5755,284.5379,0.00038573,5.858e-05,0.0,0 STARLINK-4563,1 53561U 22101AL  24190.57053238  .00005858  00000-0  38573-3 0  9990,2 53561  53.2154 278.5672 0001279  75.5755 284.5379 15.08849810104357,6917.85,95.437,540.6,538.831,0.0
53561.0,STARLINK-4563,PAYLOAD,2024-07-09 11:56:57,15.08843151,0.0001382,53.2152,274.4029,86.7324,273.3826,7.7018e-05,9.38e-06,0.0,0 STARLINK-4563,1 53561U 22101AL  24191.49789156  .00000938  00000-0  77018-4 0  9999,2 53561  53.2152 274.4029 0001382  86.7324 273.3826 15.08843151104497,6917.871,95.437,540.692,538.78,0.0
53561.0,STARLINK-4563,PAYLOAD,2024-07-10 11:47:44,15.08842747,0.000135,53.2158,269.9426,87.4085,272.7061,0.00011816,1.593e-05,0.0,0 STARLINK-4563,1 53561U 22101AL  24192.49149280  .00001593  00000-0  11816-3 0  9999,2 53561  53.2158 269.9426 0001350  87.4085 272.7061 15.08842747104641,6917.872,95.437,540.671,538.803,0.0
53561.0,STARLINK-4563,PAYLOAD,2024-07-10 14:58:31,15.08843235,0.0001345,53.2158,269.3481,87.1244,272.9902,0.0001439,2.003e-05,0.0,0 STARLINK-4563,1 53561U 22101AL  24192.62397296  .00002003  00000-0  14390-3 0  9993,2 53561  53.2158 269.3481 0001345  87.1244 272.9902 15.08843235104665,6917.871,95.437,540.666,538.805,0.0
53561.0,STARLINK-4563,PAYLOAD,2024-07-11 11:38:32,15.08840871,0.0001358,53.2161,265.4823,89.7673,270.3475,0.00013401,1.846e-05,0.0,0 STARLINK-4563,1 53561U 22101AL  24193.48509469  .00001846  00000-0  13401-3 0  9991,2 53561  53.2161 265.4823 0001358  89.7673 270.3475 15.08840871104798,6917.878,95.437,540.682,538.803,0.0
53561.0,STARLINK-4563,PAYLOAD,2024-07-12 11:29:19,15.08841559,0.0001315,53.2156,261.0218,89.3418,270.7725,0.00011023,1.467e-05,0.0,0 STARLINK-4563,1 53561U 22101AL  24194.47869469  .00001467  00000-0  11023-3 0  9997,2 53561  53.2156 261.0218 0001315  89.3418 270.7725 15.08841559104941,6917.876,95.437,540.65,538.831,0.0
53561.0,STARLINK-4563,PAYLOAD,2024-07-12 21:01:37,15.08848022,0.000135,53.2159,259.2376,90.3726,269.7421,0.00017481,2.496e-05,0.0,0 STARLINK-4563,1 53561U 22101AL  24194.87613056  .00002496  00000-0  17481-3 0  9997,2 53561  53.2159 259.2376 0001350  90.3726 269.7421 15.08848022105002,6917.856,95.437,540.655,538.787,0.0
53561.0,STARLINK-4563,PAYLOAD,2024-07-13 04:58:33,15.08842067,0.0002025,53.2158,257.7513,87.7464,272.376,0.00011449,1.534e-05,0.0,0 STARLINK-4563,1 53561U 22101AL  24195.20733559  .00001534  00000-0  11449-3 0  9996,2 53561  53.2158 257.7513 0002025  87.7464 272.3760 15.08842067105050,6917.874,95.437,541.14,538.338,0.0
53561.0,STARLINK-4563,PAYLOAD,2024-07-13 11:20:06,15.08835299,0.000149,53.2163,256.5636,102.3943,257.7216,1.7762e-05,-5e-08,0.0,0 STARLINK-4563,1 53561U 22101AL  24195.47229818 -.00000005  00000-0  17762-4 0  9991,2 53561  53.2163 256.5636 0001490 102.3943 257.7216 15.08835299105096,6917.895,95.438,540.791,538.729,0.0
53561.0,STARLINK-4563,PAYLOAD,2024-07-13 20:52:25,15.08843236,0.0001489,53.2165,254.7781,93.8818,266.2345,0.00013233,1.819e-05,0.0,0 STARLINK-4563,1 53561U 22101AL  24195.86973534  .00001819  00000-0  13233-3 0  9996,2 53561  53.2165 254.7781 0001489  93.8818 266.2345 15.08843236105157,6917.87,95.437,540.766,538.705,0.0
53561.0,STARLINK-4563,PAYLOAD,2024-07-14 04:49:21,15.08837279,0.0001668,53.2175,253.2916,96.4752,263.643,3.8448e-05,3.24e-06,0.0,0 STARLINK-4563,1 53561U 22101AL  24196.20093935  .00000324  00000-0  38448-4 0  9999,2 53561  53.2175 253.2916 0001668  96.4752 263.6430 15.08837279105209,6917.889,95.438,540.908,538.6,0.0
53561.0,STARLINK-4563,PAYLOAD,2024-07-14 11:10:53,15.08839582,0.0001593,53.2173,252.1021,93.514,266.6035,6.0616e-05,6.77e-06,0.0,0 STARLINK-4563,1 53561U 22101AL  24196.46589851  .00000677  00000-0  60616-4 0  9997,2 53561  53.2173 252.1021 0001593  93.5140 266.6035 15.08839582105245,6917.882,95.438,540.849,538.645,0.0
53561.0,STARLINK-4563,PAYLOAD,2024-07-14 20:43:11,15.08850565,0.000154,53.2166,250.3153,81.1954,278.9212,0.00019503,2.818e-05,0.0,0 STARLINK-4563,1 53561U 22101AL  24196.86333282  .00002818  00000-0  19503-3 0  9993,2 53561  53.2166 250.3153 0001540  81.1954 278.9212 15.08850565105305,6917.848,95.437,540.778,538.648,0.0
53561.0,STARLINK-4563,PAYLOAD,2024-07-15 03:04:45,15.08839075,0.0001761,53.2162,249.1279,87.922,272.1974,0.00019463,2.811e-05,0.0,0 STARLINK-4563,1 53561U 22101AL  24197.12830026  .00002811  00000-0  19463-3 0  9999,2 53561  53.2162 249.1279 0001761  87.9220 272.1974 15.08839075105349,6917.883,95.438,540.966,538.53,0.0
53561.0,STARLINK-4563,PAYLOAD,2024-07-15 11:01:40,15.08839689,0.00015,53.2147,247.6396,85.4846,274.6317,0.00013368,1.84e-05,0.0,0 STARLINK-4563,1 53561U 22101AL  24197.45949943  .00001840  00000-0  13368-3 0  9993,2 53561  53.2147 247.6396 0001500  85.4846 274.6317 15.08839689105397,6917.881,95.438,540.784,538.709,0.0
53561.0,STARLINK-4563,PAYLOAD,2024-07-15 20:33:59,15.08844831,0.0001327,53.2142,245.8537,88.4253,271.6891,0.00017034,2.424e-05,0.0,0 STARLINK-4563,1 53561U 22101AL  24197.85693630  .00002424  00000-0  17034-3 0  9999,2 53561  53.2142 245.8537 0001327  88.4253 271.6891 15.08844831105457,6917.866,95.437,540.649,538.813,0.0
53561.0,STARLINK-4563,PAYLOAD,2024-07-16 09:17:04,15.08838944,0.0001523,53.2144,243.4765,89.8261,270.2906,6.4576e-05,7.4e-06,0.0,0 STARLINK-4563,1 53561U 22101AL  24198.38686053  .00000740  00000-0  64576-4 0  9992,2 53561  53.2144 243.4765 0001523  89.8261 270.2906 15.08838944105537,6917.884,95.438,540.802,538.695,0.0
53561.0,STARLINK-4563,PAYLOAD,2024-07-17 09:07:51,15.08841766,0.0001251,53.2125,239.0161,78.4306,281.6826,0.00015736,2.218e-05,0.0,0 STARLINK-4563,1 53561U 22101AL  24199.38045894  .00002218  00000-0  15736-3 0  9990,2 53561  53.2125 239.0161 0001251  78.4306 281.6826 15.08841766105688,6917.875,95.437,540.605,538.875,0.0
53561.0,STARLINK-4563,PAYLOAD,2024-07-18 08:58:38,15.08837624,0.0001393,53.2138,234.554,90.5439,269.5712,0.00027725,4.127e-05,0.0,0 STARLINK-4563,1 53561U 22101AL  24200.37406228  .00004127  00000-0  27725-3 0  9996,2 53561  53.2138 234.5540 0001393  90.5439 269.5712 15.08837624105836,6917.888,95.438,540.716,538.789,0.0
53561.0,STARLINK-4563,PAYLOAD,2024-07-19 08:49:25,15.08838151,0.0001376,53.2153,230.092,89.9436,270.1714,5.8371e-05,6.41e-06,0.0,0 STARLINK-4563,1 53561U 22101AL  24201.36766157  .00000641  00000-0  58371-4 0  9995,2 53561  53.2153 230.0920 0001376  89.9436 270.1714 15.08838151105988,6917.886,95.438,540.703,538.799,0.0
53561.0,STARLINK-4563,PAYLOAD,2024-07-19 18:21:44,15.08840062,0.0001409,53.2156,228.308,90.1735,269.9419,6.1102e-05,6.85e-06,0.0,0 STARLINK-4563,1 53561U 22101AL  24201.76509949  .00000685  00000-0  61102-4 0  9997,2 53561  53.2156 228.3080 0001409  90.1735 269.9419 15.08840062106041,6917.88,95.438,540.72,538.77,0.0
53561.0,STARLINK-4563,PAYLOAD,2024-07-20 05:29:27,15.08829414,0.0001529,53.2166,226.2285,93.9334,266.1833,2.9893e-05,1.88e-06,0.0,0 STARLINK-4563,1 53561U 22101AL  24202.22878890  .00000188  00000-0  29893-4 0  9992,2 53561  53.2166 226.2285 0001529  93.9334 266.1833 15.08829414106110,6917.913,95.438,540.835,538.72,0.0
53561.0,STARLINK-4563,PAYLOAD,2024-07-20 08:40:13,15.08831107,0.0001473,53.2169,225.6372,96.1694,263.9466,4.1099e-05,3.66e-06,0.0,0 STARLINK-4563,1 53561U 22101AL  24202.36126808  .00000366  00000-0  41099-4 0  9992,2 53561  53.2169 225.6372 0001473  96.1694 263.9466 15.08831107106136,6917.908,95.438,540.792,538.754,0.0
